{
  "type": "FeatureCollection",
  "features": [
    {
      "type": "Feature",
      "properties": {
        "norad_id": 31367,
        "name": "FENGYUN 1C DEB",
        "group": "fengyun-1c-debris",
        "lat": -37.805719838232285,
        "lon": 60.17946282923317,
        "alt_km": 794.4445485577362,
        "timestamp": "2025-12-18T13:51:49.966003+00:00",
        "meta_object_name": "FENGYUN 1C DEB",
        "meta_object_id": "1999-025BRX",
        "meta_epoch": "2025-12-17T23:38:24.694656",
        "meta_mean_motion": 14.47512158,
        "meta_eccentricity": 0.00991591,
        "meta_inclination": 98.7463,
        "meta_ra_of_asc_node": 246.4267,
        "meta_arg_of_pericenter": 0.7022,
        "meta_mean_anomaly": 11.6916,
        "meta_ephemeris_type": 0,
        "meta_classification_type": "U",
        "meta_norad_cat_id": 31367,
        "meta_element_set_no": 999,
        "meta_rev_at_epoch": 98542,
        "meta_bstar": 0.0004763628,
        "meta_mean_motion_dot": 1.81e-05,
        "meta_mean_motion_ddot": 0,
        "tle_line1": "1 31367U 99025BRX 25351.98500804  .00001810  00000+0  47636-3 0  9993",
        "tle_line2": "2 31367  98.7463 246.4267 0099159   0.7022  11.6916 14.47512158985424"
      },
      "geometry": {
        "type": "Point",
        "coordinates": [
          60.17946282923317,
          -37.805719838232285
        ]
      }
    },
    {
      "type": "Feature",
      "properties": {
        "norad_id": 31369,
        "name": "FENGYUN 1C DEB",
        "group": "fengyun-1c-debris",
        "lat": 39.25764702160225,
        "lon": -33.42421023213843,
        "alt_km": 841.9767026722366,
        "timestamp": "2025-12-18T13:51:49.966013+00:00",
        "meta_object_name": "FENGYUN 1C DEB",
        "meta_object_id": "1999-025BRZ",
        "meta_epoch": "2025-12-13T17:46:59.452032",
        "meta_mean_motion": 14.19412375,
        "meta_eccentricity": 0.005436,
        "meta_inclination": 98.6192,
        "meta_ra_of_asc_node": 328.9902,
        "meta_arg_of_pericenter": 296.6832,
        "meta_mean_anomaly": 241.5666,
        "meta_ephemeris_type": 0,
        "meta_classification_type": "U",
        "meta_norad_cat_id": 31369,
        "meta_element_set_no": 999,
        "meta_rev_at_epoch": 64341,
        "meta_bstar": 0.00041020724,
        "meta_mean_motion_dot": 8.32e-06,
        "meta_mean_motion_ddot": 0,
        "tle_line1": "1 31369U 99025BRZ 25347.74096588  .00000832  00000+0  41021-3 0  9998",
        "tle_line2": "2 31369  98.6192 328.9902 0054360 296.6832 241.5666 14.19412375643411"
      },
      "geometry": {
        "type": "Point",
        "coordinates": [
          -33.42421023213843,
          39.25764702160225
        ]
      }
    },
    {
      "type": "Feature",
      "properties": {
        "norad_id": 31370,
        "name": "FENGYUN 1C DEB",
        "group": "fengyun-1c-debris",
        "lat": -29.40908233243364,
        "lon": -2.5894852089374965,
        "alt_km": 850.4020849858671,
        "timestamp": "2025-12-18T13:51:49.966023+00:00",
        "meta_object_name": "FENGYUN 1C DEB",
        "meta_object_id": "1999-025BSA",
        "meta_epoch": "2025-12-14T11:12:21.611520",
        "meta_mean_motion": 14.09709611,
        "meta_eccentricity": 0.00332743,
        "meta_inclination": 98.7542,
        "meta_ra_of_asc_node": 348.4304,
        "meta_arg_of_pericenter": 292.7284,
        "meta_mean_anomaly": 67.0371,
        "meta_ephemeris_type": 0,
        "meta_classification_type": "U",
        "meta_norad_cat_id": 31370,
        "meta_element_set_no": 999,
        "meta_rev_at_epoch": 96318,
        "meta_bstar": 0.00042202718,
        "meta_mean_motion_dot": 7.01e-06,
        "meta_mean_motion_ddot": 0,
        "tle_line1": "1 31370U 99025BSA 25348.46691680  .00000701  00000+0  42203-3 0  9992",
        "tle_line2": "2 31370  98.7542 348.4304 0033274 292.7284  67.0371 14.09709611963189"
      },
      "geometry": {
        "type": "Point",
        "coordinates": [
          -2.5894852089374965,
          -29.40908233243364
        ]
      }
    },
    {
      "type": "Feature",
      "properties": {
        "norad_id": 31371,
        "name": "FENGYUN 1C DEB",
        "group": "fengyun-1c-debris",
        "lat": 56.416479873208104,
        "lon": -141.19539079844876,
        "alt_km": 889.590783305679,
        "timestamp": "2025-12-18T13:51:49.966033+00:00",
        "meta_object_name": "FENGYUN 1C DEB",
        "meta_object_id": "1999-025BSB",
        "meta_epoch": "2025-12-17T08:12:36.107712",
        "meta_mean_motion": 14.0451849,
        "meta_eccentricity": 0.00779585,
        "meta_inclination": 98.7657,
        "meta_ra_of_asc_node": 24.1749,
        "meta_arg_of_pericenter": 233.7068,
        "meta_mean_anomaly": 125.6882,
        "meta_ephemeris_type": 0,
        "meta_classification_type": "U",
        "meta_norad_cat_id": 31371,
        "meta_element_set_no": 999,
        "meta_rev_at_epoch": 95811,
        "meta_bstar": 0.00054981638,
        "meta_mean_motion_dot": 8.59e-06,
        "meta_mean_motion_ddot": 0,
        "tle_line1": "1 31371U 99025BSB 25351.34208458  .00000859  00000+0  54982-3 0  9992",
        "tle_line2": "2 31371  98.7657  24.1749 0077958 233.7068 125.6882 14.04518490958113"
      },
      "geometry": {
        "type": "Point",
        "coordinates": [
          -141.19539079844876,
          56.416479873208104
        ]
      }
    },
    {
      "type": "Feature",
      "properties": {
        "norad_id": 31372,
        "name": "FENGYUN 1C DEB",
        "group": "fengyun-1c-debris",
        "lat": -32.83026042049856,
        "lon": -9.8523207026065,
        "alt_km": 809.8903956814111,
        "timestamp": "2025-12-18T13:51:49.966043+00:00",
        "meta_object_name": "FENGYUN 1C DEB",
        "meta_object_id": "1999-025BSC",
        "meta_epoch": "2025-12-15T22:03:16.354656",
        "meta_mean_motion": 14.26562101,
        "meta_eccentricity": 0.00338949,
        "meta_inclination": 99.374,
        "meta_ra_of_asc_node": 341.1848,
        "meta_arg_of_pericenter": 66.0499,
        "meta_mean_anomaly": 294.4222,
        "meta_ephemeris_type": 0,
        "meta_classification_type": "U",
        "meta_norad_cat_id": 31372,
        "meta_element_set_no": 999,
        "meta_rev_at_epoch": 95896,
        "meta_bstar": 0.001209619,
        "meta_mean_motion_dot": 2.887e-05,
        "meta_mean_motion_ddot": 0,
        "tle_line1": "1 31372U 99025BSC 25349.91893929  .00002887  00000+0  12096-2 0  9998",
        "tle_line2": "2 31372  99.3740 341.1848 0033894  66.0499 294.4222 14.26562101958960"
      },
      "geometry": {
        "type": "Point",
        "coordinates": [
          -9.8523207026065,
          -32.83026042049856
        ]
      }
    },
    {
      "type": "Feature",
      "properties": {
        "norad_id": 31376,
        "name": "FENGYUN 1C DEB",
        "group": "fengyun-1c-debris",
        "lat": -66.38684275217024,
        "lon": 68.34568235511021,
        "alt_km": 660.1640693828167,
        "timestamp": "2025-12-18T13:51:49.966054+00:00",
        "meta_object_name": "FENGYUN 1C DEB",
        "meta_object_id": "1999-025BSG",
        "meta_epoch": "2025-12-18T06:09:33.873984",
        "meta_mean_motion": 14.61820827,
        "meta_eccentricity": 0.00486312,
        "meta_inclination": 98.8348,
        "meta_ra_of_asc_node": 268.844,
        "meta_arg_of_pericenter": 251.5547,
        "meta_mean_anomaly": 108.0362,
        "meta_ephemeris_type": 0,
        "meta_classification_type": "U",
        "meta_norad_cat_id": 31376,
        "meta_element_set_no": 999,
        "meta_rev_at_epoch": 98223,
        "meta_bstar": 0.0018162436,
        "meta_mean_motion_dot": 9.179e-05,
        "meta_mean_motion_ddot": 0,
        "tle_line1": "1 31376U 99025BSG 25352.25664206  .00009179  00000+0  18162-2 0  9998",
        "tle_line2": "2 31376  98.8348 268.8440 0048631 251.5547 108.0362 14.61820827982238"
      },
      "geometry": {
        "type": "Point",
        "coordinates": [
          68.34568235511021,
          -66.38684275217024
        ]
      }
    },
    {
      "type": "Feature",
      "properties": {
        "norad_id": 31378,
        "name": "FENGYUN 1C DEB",
        "group": "fengyun-1c-debris",
        "lat": -40.43119362984648,
        "lon": -108.38314966030507,
        "alt_km": 1057.3505833524232,
        "timestamp": "2025-12-18T13:51:49.966064+00:00",
        "meta_object_name": "FENGYUN 1C DEB",
        "meta_object_id": "1999-025BSJ",
        "meta_epoch": "2025-12-15T23:25:55.260192",
        "meta_mean_motion": 13.80081198,
        "meta_eccentricity": 0.01683642,
        "meta_inclination": 100.7566,
        "meta_ra_of_asc_node": 239.3423,
        "meta_arg_of_pericenter": 189.6652,
        "meta_mean_anomaly": 170.1243,
        "meta_ephemeris_type": 0,
        "meta_classification_type": "U",
        "meta_norad_cat_id": 31378,
        "meta_element_set_no": 999,
        "meta_rev_at_epoch": 94268,
        "meta_bstar": 0.00064817453,
        "meta_mean_motion_dot": 6.94e-06,
        "meta_mean_motion_ddot": 0,
        "tle_line1": "1 31378U 99025BSJ 25349.97633403  .00000694  00000+0  64817-3 0  9992",
        "tle_line2": "2 31378 100.7566 239.3423 0168364 189.6652 170.1243 13.80081198942686"
      },
      "geometry": {
        "type": "Point",
        "coordinates": [
          -108.38314966030507,
          -40.43119362984648
        ]
      }
    }
  ]
}